GLOBALSTAR M067 [+]     
1 32263U 07048A   23339.90958737 -.00000071  00000+0  19574-3 0  9990
2 32263  51.9718 232.3713 0000343 121.2663   5.4372 12.40635134740068
GLOBALSTAR M070 [+]     
1 32264U 07048B   23339.57609811 -.00000084  00000+0  11264-3 0  9992
2 32264  51.9771  33.2512 0000074  61.6000  85.7356 12.62282759742998
GLOBALSTAR M066 [+]     
1 32265U 07048C   23339.92343796 -.00000076  00000+0  15740-3 0  9993
2 32265  51.9677 254.2360 0001507  68.4180  49.5851 12.62277602745303
GLOBALSTAR M068 [-]     
1 32266U 07048D   23339.80750333 -.00000046  00000+0  32142-3 0  9992
2 32266  51.9869 207.3583 0001366  41.7451  80.9662 12.62773746746884
GLOBALSTAR M079 [+]     
1 37188U 10054A   23339.51409778 -.00000092  00000+0  66994-4 0  9997
2 37188  52.0055  43.5199 0000628 125.0116 340.3643 12.62270390605779
GLOBALSTAR M074 [+]     
1 37189U 10054B   23339.37642705 -.00000099  00000+0  28447-4 0  9999
2 37189  52.0038  43.3477 0000434 118.1787 321.8797 12.62263013606364
GLOBALSTAR M076 [+]     
1 37190U 10054C   23339.48726940 -.00000093  00000+0  57355-4 0  9991
2 37190  52.0050  43.1324 0000789 169.4661 292.9885 12.62264130606099
GLOBALSTAR M077 [+]     
1 37191U 10054D   23339.48807321 -.00000091  00000+0  73087-4 0  9993
2 37191  52.0095 359.8269 0000192  71.1946  94.3656 12.62267137606468
